     3.02           N: GNSS NAV DATA    G: GPS              RINEX VERSION / TYPE
GNSS-SDR            jmfriedt            20250107 165353 UTC PGM / RUN BY / DATE 
GPS NAVIGATION MESSAGE FILE GENERATED BY GNSS-SDR           COMMENT             
GNSS-SDR VERSION 0.0.19.git-main-87fcfd237                  COMMENT             
See https://gnss-sdr.org                                    COMMENT             
GPSA    .2235D-07   .0000D+00  -.5960D-07   .1192D-06       IONOSPHERIC CORR    
GPSB    .1454D+06  -.1966D+06   .0000D+00   .1966D+06       IONOSPHERIC CORR    
GPUT   .1862645149D-08  .444089210D-14 503808 2348          TIME SYSTEM CORR    
    18    18   137     7                                    LEAP SECONDS        
                                                            END OF HEADER       
G25 2025 01 07 16 00 00  .497090630233D-03 -.568434188608D-12  .000000000000D+00
      .330000000000D+02  .922187500000D+02  .485234497679D-08  .155527528385D+01
      .459700822830D-05  .123103712685D-01  .102110207081D-04  .515368923378D+04
      .230400000000D+06 -.270083546638D-06  .218151372412D+01 -.119209289551D-06
      .948910863638D+00  .176437500000D+03  .110865891536D+01 -.825927260328D-08
     -.392873507616D-11  .100000000000D+01  .234800000000D+04  .100000000000D+01
      .000000000000D+00  .000000000000D+00  .558793544769D-08  .330000000000D+02
      .224286000000D+06  .000000000000D+00                                      
G28 2025 01 07 16 00 00 -.529370736331D-03 -.989075488178D-11  .000000000000D+00
      .260000000000D+02 -.261562500000D+02  .473269713583D-08  .123308803141D+01
     -.128522515297D-05  .436318223365D-03  .974349677563D-05  .515379231453D+04
      .230400000000D+06 -.167638063431D-07  .112359597019D+01 -.372529029846D-07
      .961186727114D+00  .192593750000D+03  .142149197409D+01 -.802640576059D-08
     -.283226083217D-09  .100000000000D+01  .234800000000D+04  .100000000000D+01
      .000000000000D+00  .000000000000D+00 -.931322574615D-08  .794000000000D+03
      .224286000000D+06  .000000000000D+00                                      
G31 2025 01 07 16 00 00 -.218384899199D-03  .795807864051D-12  .000000000000D+00
      .840000000000D+02 -.295312500000D+02  .486377402428D-08  .141969159007D+01
     -.135414302349D-05  .107014145469D-01  .102464109659D-04  .515360949707D+04
      .230400000000D+06 -.191852450371D-06  .117655446924D+01  .447034835815D-07
      .954015126719D+00  .182906250000D+03  .793631896445D+00 -.820319883902D-08
     -.377515725045D-09  .100000000000D+01  .234800000000D+04  .100000000000D+01
      .000000000000D+00  .000000000000D+00 -.135041773319D-07  .840000000000D+02
      .224286000000D+06  .000000000000D+00                                      
G32 2025 01 07 15 59 44 -.545827671885D-03  .670752342558D-11  .000000000000D+00
      .700000000000D+01 -.194375000000D+02  .486198823561D-08 -.391922152239D+00
     -.918284058571D-06  .828366144560D-02  .664591789246D-05  .515376558495D+04
      .230384000000D+06 -.316649675369D-07  .970445272312D-01  .838190317154D-07
      .964041069003D+00  .255937500000D+03 -.210930860083D+01 -.832248952224D-08
      .245010205659D-09  .100000000000D+01  .234800000000D+04  .100000000000D+01
      .000000000000D+00  .000000000000D+00  .931322574615D-09  .700000000000D+01
      .224286000000D+06  .000000000000D+00                                      
G29 2025 01 07 16 00 00 -.549208372831D-03  .329691829393D-11  .000000000000D+00
      .210000000000D+02  .334062500000D+02  .458233372974D-08 -.111328357392D+01
      .165402889252D-05  .290617276914D-02  .378862023354D-05  .515372021484D+04
      .230400000000D+06 -.838190317154D-07 -.295931908082D+01 -.130385160446D-07
      .968341897475D+00  .310375000000D+03  .263933321288D+01 -.834606193269D-08
     -.117504894551D-09  .100000000000D+01  .234800000000D+04  .100000000000D+01
      .000000000000D+00  .000000000000D+00 -.977888703346D-08  .210000000000D+02
      .224298000000D+06  .000000000000D+00                                      
G12 2025 01 07 16 00 00 -.563082285225D-03 -.227373675443D-11  .000000000000D+00
      .140000000000D+02  .939375000000D+02  .450375902821D-08  .173033552502D+01
      .456720590591D-05  .899335986469D-02  .911951065063D-05  .515376922226D+04
      .230400000000D+06  .428408384323D-07  .227062511139D+01 -.210478901863D-06
      .960877336032D+00  .200312500000D+03  .146739425017D+01 -.801961976364D-08
      .150006248362D-10  .100000000000D+01  .234800000000D+04  .100000000000D+01
      .000000000000D+00  .000000000000D+00 -.125728547573D-07  .140000000000D+02
      .224298000000D+06  .000000000000D+00                                      
G11 2025 01 07 16 00 00 -.752219464630D-03  .682121026330D-12  .000000000000D+00
      .130000000000D+02 -.553125000000D+02  .423339062343D-08 -.195551092158D+01
     -.280514359474D-05  .176219188143D-02  .750645995140D-05  .515359755135D+04
      .230400000000D+06  .149011611938D-07 -.194129672529D+01 -.502914190292D-07
      .965839777984D+00  .239875000000D+03 -.233751022776D+01 -.803212028434D-08
     -.171792870148D-09  .100000000000D+01  .234800000000D+04  .100000000000D+01
      .000000000000D+00  .000000000000D+00 -.884756445885D-08  .269000000000D+03
      .224322000000D+06  .000000000000D+00                                      
     3.02           N: GNSS NAV DATA    G: GPS              RINEX VERSION / TYPE
GNSS-SDR            jmfriedt            20250107 165641 UTC PGM / RUN BY / DATE 
GPS NAVIGATION MESSAGE FILE GENERATED BY GNSS-SDR           COMMENT             
GNSS-SDR VERSION 0.0.19.git-main-87fcfd237                  COMMENT             
See https://gnss-sdr.org                                    COMMENT             
GPSA    .0000D+00   .0000D+00   .0000D+00   .0000D+00       IONOSPHERIC CORR    
GPSB    .0000D+00   .0000D+00   .0000D+00   .0000D+00       IONOSPHERIC CORR    
GPUT   .0000000000D+00  .000000000D+00      0 2348          TIME SYSTEM CORR    
     0     0     0     0                                    LEAP SECONDS        
                                                            END OF HEADER       
G25 2025 01 07 16 00 00  .497090630233D-03 -.568434188608D-12  .000000000000D+00
      .330000000000D+02  .922187500000D+02  .485234497679D-08  .155527528385D+01
      .459700822830D-05  .123103712685D-01  .102110207081D-04  .515368923378D+04
      .230400000000D+06 -.270083546638D-06  .218151372412D+01 -.119209289551D-06
      .948910863638D+00  .176437500000D+03  .110865891536D+01 -.825927260328D-08
     -.392873507616D-11  .100000000000D+01  .234800000000D+04  .100000000000D+01
      .000000000000D+00  .000000000000D+00  .558793544769D-08  .330000000000D+02
      .224268000000D+06  .000000000000D+00                                      
G28 2025 01 07 16 00 00 -.529370736331D-03 -.989075488178D-11  .000000000000D+00
      .260000000000D+02 -.261562500000D+02  .473269713583D-08  .123308803141D+01
     -.128522515297D-05  .436318223365D-03  .974349677563D-05  .515379231453D+04
      .230400000000D+06 -.167638063431D-07  .112359597019D+01 -.372529029846D-07
      .961186727114D+00  .192593750000D+03  .142149197409D+01 -.802640576059D-08
     -.283226083217D-09  .100000000000D+01  .234800000000D+04  .100000000000D+01
      .000000000000D+00  .000000000000D+00 -.931322574615D-08  .794000000000D+03
      .224268000000D+06  .000000000000D+00                                      
G29 2025 01 07 16 00 00 -.549208372831D-03  .329691829393D-11  .000000000000D+00
      .210000000000D+02  .334062500000D+02  .458233372974D-08 -.111328357392D+01
      .165402889252D-05  .290617276914D-02  .378862023354D-05  .515372021484D+04
      .230400000000D+06 -.838190317154D-07 -.295931908082D+01 -.130385160446D-07
      .968341897475D+00  .310375000000D+03  .263933321288D+01 -.834606193269D-08
     -.117504894551D-09  .100000000000D+01  .234800000000D+04  .100000000000D+01
      .000000000000D+00  .000000000000D+00 -.977888703346D-08  .210000000000D+02
      .224268000000D+06  .000000000000D+00                                      
G31 2025 01 07 16 00 00 -.218384899199D-03  .795807864051D-12  .000000000000D+00
      .840000000000D+02 -.295312500000D+02  .486377402428D-08  .141969159007D+01
     -.135414302349D-05  .107014145469D-01  .102464109659D-04  .515360949707D+04
      .230400000000D+06 -.191852450371D-06  .117655446924D+01  .447034835815D-07
      .954015126719D+00  .182906250000D+03  .793631896445D+00 -.820319883902D-08
     -.377515725045D-09  .100000000000D+01  .234800000000D+04  .100000000000D+01
      .000000000000D+00  .000000000000D+00 -.135041773319D-07  .840000000000D+02
      .224268000000D+06  .000000000000D+00                                      
G32 2025 01 07 15 59 44 -.545827671885D-03  .670752342558D-11  .000000000000D+00
      .700000000000D+01 -.194375000000D+02  .486198823561D-08 -.391922152239D+00
     -.918284058571D-06  .828366144560D-02  .664591789246D-05  .515376558495D+04
      .230384000000D+06 -.316649675369D-07  .970445272312D-01  .838190317154D-07
      .964041069003D+00  .255937500000D+03 -.210930860083D+01 -.832248952224D-08
      .245010205659D-09  .100000000000D+01  .234800000000D+04  .100000000000D+01
      .000000000000D+00  .000000000000D+00  .931322574615D-09  .700000000000D+01
      .224268000000D+06  .000000000000D+00                                      
